CZ-2F R/B               
1 67690U 26024B   26064.92544887  .00019562  00000+0  35905-3 0  9994
2 67690  49.9879  33.4757 0174872 259.2574  98.8656 15.34155579  4111
CZ-2F DEB               
1 67691U 26024C   26064.91873821  .01292232  11074-4  70329-3 0  9992
2 67691  49.9031  24.7081 0142675 273.9888  84.4798 15.99908243  4216
CZ-2F DEB               
1 67692U 26024D   26064.93993528  .00238853  00000+0  42149-2 0  9990
2 67692  50.3187  37.1044 0236778 265.2596  92.1290 15.23963893  4054
STARLINK-36748          
1 67693U 26025A   26064.85733516  .00358648  00000+0  23044-2 0  9990
2 67693  97.2827 176.1996 0001647  47.2930 312.8474 15.75204452  5335
STARLINK-36753          
1 67694U 26025B   26064.84954800 -.00737991  00000+0 -53225-2 0  9999
2 67694  97.2854 176.2102 0001007 175.1313 184.9962 15.75476330  5349
STARLINK-36750          
1 67695U 26025C   26064.24858923  .00401198  00000+0  19907-2 0  9997
2 67695  97.2837 175.6515 0001259 166.0920 194.0383 15.80922603  5247
STARLINK-36401          
1 67696U 26025D   26064.77228638  .00564409  00000+0  35062-2 0  9995
2 67696  97.2843 176.1627 0002029  38.3093 321.8316 15.75416325  5321
STARLINK-36704          
1 67697U 26025E   26064.84744423  .00126092  00000+0  83261-3 0  9996
2 67697  97.2837 176.2116 0000928 140.7398 219.3935 15.75223967  5338
STARLINK-36697          
1 67698U 26025F   26064.81184767  .00265163  00000+0  13392-2 0  9993
2 67698  97.2840 176.2622 0001098  68.4800 291.6585 15.80884822  5331
STARLINK-36716          
1 67699U 26025G   26064.91668981  .00071998  00000+0  47988-3 0  9990
2 67699  97.2844 176.3585 0001318  88.8801 111.5871 15.75172449  5402
STARLINK-36712          
1 67700U 26025H   26064.83757371  .00288376  00000+0  18707-2 0  9992
2 67700  97.2845 176.2249 0001436  75.6837 284.4588 15.75177143  5339
STARLINK-36713          
1 67701U 26025J   26064.77581441  .00368305  00000+0  23505-2 0  9992
2 67701  97.2850 176.1559 0001770  56.3413 303.8021 15.75334045  5330
STARLINK-36695          
1 67702U 26025K   26064.84145220  .00349004  00000+0  22471-2 0  9998
2 67702  97.2860 176.2178 0000857  92.5114 267.6249 15.75181901  5335
STARLINK-36630          
1 67703U 26025L   26064.74061614  .00003915  00000+0  21206-4 0  9997
2 67703  97.2861 176.2053 0001461  66.8263 293.3159 15.80780668  5326
STARLINK-36338          
1 67704U 26025M   26064.24817767  .00300071  00000+0  19334-2 0  9991
2 67704  97.2845 175.6477 0001245 176.5980 183.5294 15.75302844  5248
STARLINK-36316          
1 67705U 26025N   26064.76628058  .00232690  00000+0  15147-2 0  9991
2 67705  97.2848 176.1690 0001401  53.9300 306.2095 15.75252468  5321
