[{"OBJECT_NAME":"CZ-2F R/B","OBJECT_ID":"2026-024B","EPOCH":"2026-03-05T22:12:38.782368","MEAN_MOTION":15.34155579,"ECCENTRICITY":0.01748724,"INCLINATION":49.9879,"RA_OF_ASC_NODE":33.4757,"ARG_OF_PERICENTER":259.2574,"MEAN_ANOMALY":98.8656,"EPHEMERIS_TYPE":0,"CLASSIFICATION_TYPE":"U","NORAD_CAT_ID":67690,"ELEMENT_SET_NO":999,"REV_AT_EPOCH":411,"BSTAR":0.00035904907,"MEAN_MOTION_DOT":0.00019562,"MEAN_MOTION_DDOT":0},{"OBJECT_NAME":"CZ-2F DEB","OBJECT_ID":"2026-024C","EPOCH":"2026-03-05T22:02:58.981344","MEAN_MOTION":15.99908243,"ECCENTRICITY":0.01426752,"INCLINATION":49.9031,"RA_OF_ASC_NODE":24.7081,"ARG_OF_PERICENTER":273.9888,"MEAN_ANOMALY":84.4798,"EPHEMERIS_TYPE":0,"CLASSIFICATION_TYPE":"U","NORAD_CAT_ID":67691,"ELEMENT_SET_NO":999,"REV_AT_EPOCH":421,"BSTAR":0.00070328634,"MEAN_MOTION_DOT":0.01292232,"MEAN_MOTION_DDOT":1.1073698e-5},{"OBJECT_NAME":"CZ-2F DEB","OBJECT_ID":"2026-024D","EPOCH":"2026-03-05T22:33:30.408192","MEAN_MOTION":15.23963893,"ECCENTRICITY":0.02367786,"INCLINATION":50.3187,"RA_OF_ASC_NODE":37.1044,"ARG_OF_PERICENTER":265.2596,"MEAN_ANOMALY":92.129,"EPHEMERIS_TYPE":0,"CLASSIFICATION_TYPE":"U","NORAD_CAT_ID":67692,"ELEMENT_SET_NO":999,"REV_AT_EPOCH":405,"BSTAR":0.0042149085,"MEAN_MOTION_DOT":0.00238853,"MEAN_MOTION_DDOT":0},{"OBJECT_NAME":"STARLINK-36748","OBJECT_ID":"2026-025A","EPOCH":"2026-03-05T20:34:33.757824","MEAN_MOTION":15.75204452,"ECCENTRICITY":0.00016473,"INCLINATION":97.2827,"RA_OF_ASC_NODE":176.1996,"ARG_OF_PERICENTER":47.293,"MEAN_ANOMALY":312.8474,"EPHEMERIS_TYPE":0,"CLASSIFICATION_TYPE":"U","NORAD_CAT_ID":67693,"ELEMENT_SET_NO":999,"REV_AT_EPOCH":533,"BSTAR":0.0023043909,"MEAN_MOTION_DOT":0.00358648,"MEAN_MOTION_DDOT":0},{"OBJECT_NAME":"STARLINK-36753","OBJECT_ID":"2026-025B","EPOCH":"2026-03-05T20:23:20.947200","MEAN_MOTION":15.7547633,"ECCENTRICITY":0.00010073,"INCLINATION":97.2854,"RA_OF_ASC_NODE":176.2102,"ARG_OF_PERICENTER":175.1313,"MEAN_ANOMALY":184.9962,"EPHEMERIS_TYPE":0,"CLASSIFICATION_TYPE":"U","NORAD_CAT_ID":67694,"ELEMENT_SET_NO":999,"REV_AT_EPOCH":534,"BSTAR":-0.0053225078,"MEAN_MOTION_DOT":-0.00737991,"MEAN_MOTION_DDOT":0},{"OBJECT_NAME":"STARLINK-36750","OBJECT_ID":"2026-025C","EPOCH":"2026-03-05T05:57:58.109472","MEAN_MOTION":15.80922603,"ECCENTRICITY":0.0001259,"INCLINATION":97.2837,"RA_OF_ASC_NODE":175.6515,"ARG_OF_PERICENTER":166.092,"MEAN_ANOMALY":194.0383,"EPHEMERIS_TYPE":0,"CLASSIFICATION_TYPE":"U","NORAD_CAT_ID":67695,"ELEMENT_SET_NO":999,"REV_AT_EPOCH":524,"BSTAR":0.0019907,"MEAN_MOTION_DOT":0.00401198,"MEAN_MOTION_DDOT":0},{"OBJECT_NAME":"STARLINK-36401","OBJECT_ID":"2026-025D","EPOCH":"2026-03-05T18:32:05.543232","MEAN_MOTION":15.75416325,"ECCENTRICITY":0.0002029,"INCLINATION":97.2843,"RA_OF_ASC_NODE":176.1627,"ARG_OF_PERICENTER":38.3093,"MEAN_ANOMALY":321.8316,"EPHEMERIS_TYPE":0,"CLASSIFICATION_TYPE":"U","NORAD_CAT_ID":67696,"ELEMENT_SET_NO":999,"REV_AT_EPOCH":532,"BSTAR":0.0035061985,"MEAN_MOTION_DOT":0.00564409,"MEAN_MOTION_DDOT":0},{"OBJECT_NAME":"STARLINK-36704","OBJECT_ID":"2026-025E","EPOCH":"2026-03-05T20:20:19.181472","MEAN_MOTION":15.75223967,"ECCENTRICITY":9.286e-5,"INCLINATION":97.2837,"RA_OF_ASC_NODE":176.2116,"ARG_OF_PERICENTER":140.7398,"MEAN_ANOMALY":219.3935,"EPHEMERIS_TYPE":0,"CLASSIFICATION_TYPE":"U","NORAD_CAT_ID":67697,"ELEMENT_SET_NO":999,"REV_AT_EPOCH":533,"BSTAR":0.00083260612,"MEAN_MOTION_DOT":0.00126092,"MEAN_MOTION_DDOT":0},{"OBJECT_NAME":"STARLINK-36697","OBJECT_ID":"2026-025F","EPOCH":"2026-03-05T19:29:03.638688","MEAN_MOTION":15.80884822,"ECCENTRICITY":0.00010989,"INCLINATION":97.284,"RA_OF_ASC_NODE":176.2622,"ARG_OF_PERICENTER":68.48,"MEAN_ANOMALY":291.6585,"EPHEMERIS_TYPE":0,"CLASSIFICATION_TYPE":"U","NORAD_CAT_ID":67698,"ELEMENT_SET_NO":999,"REV_AT_EPOCH":533,"BSTAR":0.0013392021,"MEAN_MOTION_DOT":0.00265163,"MEAN_MOTION_DDOT":0},{"OBJECT_NAME":"STARLINK-36716","OBJECT_ID":"2026-025G","EPOCH":"2026-03-05T22:00:01.999584","MEAN_MOTION":15.75172449,"ECCENTRICITY":0.00013189,"INCLINATION":97.2844,"RA_OF_ASC_NODE":176.3585,"ARG_OF_PERICENTER":88.8801,"MEAN_ANOMALY":111.5871,"EPHEMERIS_TYPE":0,"CLASSIFICATION_TYPE":"U","NORAD_CAT_ID":67699,"ELEMENT_SET_NO":999,"REV_AT_EPOCH":540,"BSTAR":0.0004798769,"MEAN_MOTION_DOT":0.00071998,"MEAN_MOTION_DDOT":0},{"OBJECT_NAME":"STARLINK-36712","OBJECT_ID":"2026-025H","EPOCH":"2026-03-05T20:06:06.368544","MEAN_MOTION":15.75177143,"ECCENTRICITY":0.00014367,"INCLINATION":97.2845,"RA_OF_ASC_NODE":176.2249,"ARG_OF_PERICENTER":75.6837,"MEAN_ANOMALY":284.4588,"EPHEMERIS_TYPE":0,"CLASSIFICATION_TYPE":"U","NORAD_CAT_ID":67700,"ELEMENT_SET_NO":999,"REV_AT_EPOCH":533,"BSTAR":0.0018707368,"MEAN_MOTION_DOT":0.00288376,"MEAN_MOTION_DDOT":0},{"OBJECT_NAME":"STARLINK-36713","OBJECT_ID":"2026-025J","EPOCH":"2026-03-05T18:37:10.365024","MEAN_MOTION":15.75334045,"ECCENTRICITY":0.00017706,"INCLINATION":97.285,"RA_OF_ASC_NODE":176.1559,"ARG_OF_PERICENTER":56.3413,"MEAN_ANOMALY":303.8021,"EPHEMERIS_TYPE":0,"CLASSIFICATION_TYPE":"U","NORAD_CAT_ID":67701,"ELEMENT_SET_NO":999,"REV_AT_EPOCH":533,"BSTAR":0.0023505308,"MEAN_MOTION_DOT":0.00368305,"MEAN_MOTION_DDOT":0},{"OBJECT_NAME":"STARLINK-36695","OBJECT_ID":"2026-025K","EPOCH":"2026-03-05T20:11:41.470080","MEAN_MOTION":15.75181901,"ECCENTRICITY":8.579e-5,"INCLINATION":97.286,"RA_OF_ASC_NODE":176.2178,"ARG_OF_PERICENTER":92.5114,"MEAN_ANOMALY":267.6249,"EPHEMERIS_TYPE":0,"CLASSIFICATION_TYPE":"U","NORAD_CAT_ID":67702,"ELEMENT_SET_NO":999,"REV_AT_EPOCH":533,"BSTAR":0.0022471163,"MEAN_MOTION_DOT":0.00349004,"MEAN_MOTION_DDOT":0},{"OBJECT_NAME":"STARLINK-36630","OBJECT_ID":"2026-025L","EPOCH":"2026-03-05T17:46:29.234496","MEAN_MOTION":15.80780668,"ECCENTRICITY":0.00014611,"INCLINATION":97.2861,"RA_OF_ASC_NODE":176.2053,"ARG_OF_PERICENTER":66.8263,"MEAN_ANOMALY":293.3159,"EPHEMERIS_TYPE":0,"CLASSIFICATION_TYPE":"U","NORAD_CAT_ID":67703,"ELEMENT_SET_NO":999,"REV_AT_EPOCH":532,"BSTAR":2.1205612e-5,"MEAN_MOTION_DOT":3.915e-5,"MEAN_MOTION_DDOT":0},{"OBJECT_NAME":"STARLINK-36338","OBJECT_ID":"2026-025M","EPOCH":"2026-03-05T05:57:22.550688","MEAN_MOTION":15.75302844,"ECCENTRICITY":0.0001245,"INCLINATION":97.2845,"RA_OF_ASC_NODE":175.6477,"ARG_OF_PERICENTER":176.598,"MEAN_ANOMALY":183.5294,"EPHEMERIS_TYPE":0,"CLASSIFICATION_TYPE":"U","NORAD_CAT_ID":67704,"ELEMENT_SET_NO":999,"REV_AT_EPOCH":524,"BSTAR":0.0019334,"MEAN_MOTION_DOT":0.00300071,"MEAN_MOTION_DDOT":0},{"OBJECT_NAME":"STARLINK-36316","OBJECT_ID":"2026-025N","EPOCH":"2026-03-05T18:23:26.642112","MEAN_MOTION":15.75252468,"ECCENTRICITY":0.00014014,"INCLINATION":97.2848,"RA_OF_ASC_NODE":176.169,"ARG_OF_PERICENTER":53.93,"MEAN_ANOMALY":306.2095,"EPHEMERIS_TYPE":0,"CLASSIFICATION_TYPE":"U","NORAD_CAT_ID":67705,"ELEMENT_SET_NO":999,"REV_AT_EPOCH":532,"BSTAR":0.0015147017,"MEAN_MOTION_DOT":0.0023269,"MEAN_MOTION_DDOT":0}]
